[{"OBJECT_NAME":"STARLINK-34312","OBJECT_ID":"2025-142R","EPOCH":"2026-03-09T23:21:11.585664","MEAN_MOTION":14.98336997,"ECCENTRICITY":0.00023746,"INCLINATION":70.0006,"RA_OF_ASC_NODE":313.7209,"ARG_OF_PERICENTER":269.784,"MEAN_ANOMALY":90.3047,"EPHEMERIS_TYPE":0,"CLASSIFICATION_TYPE":"U","NORAD_CAT_ID":64711,"ELEMENT_SET_NO":999,"REV_AT_EPOCH":3969,"BSTAR":0.0002393619,"MEAN_MOTION_DOT":2.765e-5,"MEAN_MOTION_DDOT":0},{"OBJECT_NAME":"COSMOS 397 DEB","OBJECT_ID":"1971-015D","EPOCH":"2026-03-09T13:45:21.862944","MEAN_MOTION":13.72086922,"ECCENTRICITY":0.0619447,"INCLINATION":65.8363,"RA_OF_ASC_NODE":222.312,"ARG_OF_PERICENTER":314.4555,"MEAN_ANOMALY":40.7385,"EPHEMERIS_TYPE":0,"CLASSIFICATION_TYPE":"U","NORAD_CAT_ID":5010,"ELEMENT_SET_NO":999,"REV_AT_EPOCH":63519,"BSTAR":0.00085725,"MEAN_MOTION_DOT":3.091e-5,"MEAN_MOTION_DDOT":0}]
